raid,name,address,countryname,statename,countyname,cityname,zip,lat,lon,email,phone,website,facebook,instagram,twitter,linkedin
005008106cf437ce9a479baf9c3f467f,Colorado Cannabis Growers Association,420 Main St.,US,CO,Huerfano,Walsenburg,81089,37.65158,-104.737761,ccgassociation@gmail.com,719-890-4424,https://ccgassociation.wixsite.com/welcome,https://www.facebook.com/The-Colorado-Cannabis-Growers-Association-1686756028274356/?ref=bookmarks,,,
02228364b75b94ba1e7b95382712f20e,Craft Cannabis Association of B.C. (CCABC),PO Box 674 Nelson,CAN,BC,,Vancouver,V1L5R,,,hello@craftcannabis.ca,,https://www.craftcannabis.ca,https://www.facebook.com/CraftCABC/,https://www.instagram.com/craftcabc/,,
048bc8c24b5e46bc9fded8bc3f56afab,Coachella Valley Cannabis Alliance Network (CVCAN),"14080 Palm Drive, Suite D-457",US,CA,Riverside,Desert Hot Springs,92240,33.95154,-116.520104,info@deserthotspringscan.org,(760) 218-5447,https://coachellavalleycan.org/,https://www.facebook.com/COACHELLAVALLEYCAN/,https://www.instagram.com/c.v.c.a.n/,,https://www.linkedin.com/company/cvcan-coachella-valley-cannabis-alliance-network/?originalSubdomain=de
060374bfbc4366e0718450f9a75a7f94,Canadian Cannabis Association,"200, rue Durand unité 203",CAN,QC,,Saint-jérôme,J7Z 7E2,,,canadiancannabisassociation@gmail.com,450 304-9993,https://www.associationcannabis.ca/en/,,,,https://www.linkedin.com/in/canadian-cannabis-7ba2ba196/?originalSubdomain=ca
06fd151cb85d9ab4beb6244a79c78948,Minnesota Cannabis Association,,US,MN,,,,,,contact@mncannabisassociation.org,,https://www.mncannabisassociation.org/,,,,
0844beab0441f9df8ef6bb1551d8e0bb,Georgia Cannabis Industry Association (GA-CIA),140 Rollingwood Drive,US,GA,Clarke,Athens,30605,33.905911,-83.323577,director@gacannabisindustryalliance.com,+1 678-901-0162,https://gacannabisindustryalliance.com/,https://www.facebook.com/georgiaCIA/,,,
08af83f4e77c4704c79b3fd77fb75050,American Medical Marijuana Physicians Association,618 E South St,US,FL,Orange,"
orlando",32801,28.541774,-81.374351,,,https://www.ammpa.net/,,,,https://www.linkedin.com/company/ammpa/
08b29104c902ce2d9ac48bded98d7c6c,Maine Cannabis Industry Association,,US,ME,,,,,,ktracy@verrilldana.com,,https://www.mainecannabisindustry.com/,,,,
08c88f84d0fcd5bd379007d0ea531167,Texas Cannabis Industry Association (TCIA),"11625 Custer Rd, Suite 110-255",US,TX,Collin,Frisco,75035,33.16313,-96.790193,"executive-director@texascannabisindustry.org, administration@texascannabisindustry.org",(310) 654-9247,https://www.texascannabisindustry.org/,https://www.facebook.com/TxCIA/,https://www.instagram.com/txcannabisindustry/,https://twitter.com/TxCIA,https://www.linkedin.com/company/texas-cannabis-industry-association/
0ac9283b45c5729006792b5f6c087c96,Southern California Cannabis Council (SCCC),"14080 Palm Dr., Suite D442",US,CA,Riverside,Desert Hot Springs,92240,33.95154,-116.520104,info@scccouncil.org,(951) 741-1080,https://www.scccouncil.org/,,,,https://www.linkedin.com/company/southern-california-cannabis-council-sccc/
0bc2754db650b2b03e6df439f8acd881,Cannabis Business Assocation,"3845 Tennyson Street, Suite 170",US,CO,Denver,Denver,80212,39.772047,-105.048027,info@cannabisbusinessassociation.com,(888) 683-5650,https://www.cannabisbusinessassociation.com,https://www.facebook.com/pg/CannaBizAssoc,https://www.instagram.com/cannabisbusinessassociation/,https://twitter.com/CannaBizAssoc,https://www.linkedin.com/company/cannabisbusinessassociation
0bec8cf5b3009267e0b5c5dc38ab2ecf,Hudson Valley Cannabis Industry Association,,US,NY,,New York,,,,,,https://ciamembership.org/,https://www.facebook.com/CannabusinessNY/,,,https://www.linkedin.com/company/hv-nyc-cia/
0d0d910794db691aeae9673924de3a17,Montana Cannabis Trade Association,"175 Hutton Ranch Rd 103, PMB 120",US,MT,Flathead,Kalispell,59901,48.229649,-114.385053,,,https://www.mtcia.org/,https://www.facebook.com/mtcia,,https://twitter.com/mtciamontana,
0d5d413f247e3e69fb10e5c6442b64a4,Colorado Leads,1312 17th St. # 1302,US,CO,Denver,Denver,80202,39.751907,-104.997633,,(303) 881-8971,https://coleads.org,,,https://twitter.com/ColoradoLeads,
10dee7d3295b9f5192bf85b623773e16,Tennessee Growers Coalition (TGC),,US,TN,Davidson,Nashville,37243,36.165011,-86.782141,tngrowerscoalition@gmail.com,,https://tngrowerscoalition.com/,https://www.facebook.com/tngrowerscoalition,https://www.instagram.com/tngrowerscoalition/?hl=en,,
11b3483456a3ef7dec1daa76f8f351e9,American Herbal Products Association (AHPA),"8630 Fenton St, Suite 123",US,MD,Montgomery,Silver Spring,20910,39.002837,-77.036701,ahpa@ahpa.org,301.588.1171,https://www.ahpa.org,https://www.facebook.com/AHPAssociation/,https://www.instagram.com/ahpa1982/,,https://www.linkedin.com/company/american-herbal-products-association/?viewAsMember=true
1255bf7316c96acf03f8cab2ba13df5b,Massachusetts Cannabis Business Association,"Cambridge Innovation Center (CIC), One Broadway, 14th floor",US,MA,Middlesex,Cambridge,02142,42.361471,-71.081994,david.obrien@masscba.com,(617) 784-2088,https://www.masscba.com/,https://www.facebook.com/profile.php?id=100075457557138,,,https://www.linkedin.com/company/masscba/about/
13021d9137059119f9e2dda32d063761,Vermont Cannabis Trades Association (VCTA),,US,VT,,,,,,,,https://vctatoday.org/,https://www.facebook.com/Vermont-Cannabis-Trades-Association-1777324725917993,,,
131cff9b9fdc998484d334331bd23591,The Cannabis Distribution Association (CDA),"1127-11th Street, Suite 609",US,CA,Sacramento,Sacramento,95814,38.580568,-121.49559,membership@distributeca.org,916-304-4714,https://www.distributeca.org/,https://www.facebook.com/distributeca/,https://www.instagram.com/distributeca/,,https://www.linkedin.com/company/distributeca/
136880367f99124257bd98645fe4fab5,Kansas Cannabis Business Association (KSCBA),7201 W 80th Street 304,US,KS,Johnson,Overland Park,66204,38.990381,-94.678214,kscba.info@gmail.com,(913) 200-5223,https://kscba.org/,https://www.facebook.com/kscba,https://www.instagram.com/kscbaorg/,https://twitter.com/kscba,https://www.linkedin.com/company/kscba/
13922ed13dbf7c77307588968755cd73,Illinois Craft Cannabis Association (ICCA),,US,IL,,,,,,,,https://www.ilcraft.org/,https://www.facebook.com/groups/997797970645907,,https://twitter.com/ilcraftcannabis?lang=en,
161e490546998c8677d40ac1bce70f5e,Colorado Hemp Association,60799 Salt Creek Rd,US,CO,Mesa,Collbran,81624,39.199484,-107.706269,admin@thecohia.org,,https://coloradohempassociation.org/,https://www.facebook.com/ColoradoHA/,https://www.instagram.com/cohempassociation/,,https://www.linkedin.com/company/68177982/admin/
17bc85050d28c416c8f2b2124137662e,Maryland Wholesale Medical Cannabis Trade Association (CANMD),,US,MD,,,,,,info@canmd.org,,https://www.canmd.org/,https://www.facebook.com/MWMCTA,,https://twitter.com/MWMCTA,https://www.linkedin.com/company/canmd/
18c0b4f294cf12f5951c93dc3b0e587e,Maryland Cannabis Industry Association (MDCIA),267 Kentlands Blvd #1080,US,MD,Montgomery,Gaithersburg,20878,39.112821,-77.250504,support@mdcia.org,(800) 862-4814,http://mdcia.org/,https://www.facebook.com/MDCIAorg,,,
192a7a19ffe342c622f7e9a5d0d51816,National Cannabis Industry Association (NCIA),"3845 Tennyson St. Ste 170 Denver, CO 80212",US,CO,Denver,Denver,80212,39.772047,-105.048027,info@thecannabisindustry.org,(888) 683-5650,https://thecannabisindustry.org,https://www.facebook.com/TheNCIA,https://www.instagram.com/nationalcannabisindustry/,https://twitter.com/NCIAorg,https://www.linkedin.com/company/national-cannabis-industry-association/
1afbdae11b457bfdbc8bf380cfd37684,Cannabis Regulators Association,,US,,,,,,,info@cann-ra.org,,https://www.cann-ra.org/,,,https://twitter.com/CannRegulators,https://www.linkedin.com/company/cannabis-regulators-association-cannra/
1e345f58ecde36bb79d3261037ba44da,Southern California Coalition,"241 S Figueroa St Ste 100, Los Angeles, California, 90012, United States",US,CA,Los Angeles,Los Angeles,90012,34.065975,-118.238642,,844-588-0880,http://southerncaliforniacoalition.com,http://www.facebook.com/southerncaliforniacoalition,,https://twitter.com/socalcoalition?lang=en,http://www.linkedin.com/company/southern-california-coalition
1f5f6d9f4c89dc98476b2f6c810e5acd,Napa Valley Cannabis Association,P.O. Box 78,US,CA,Napa,Rutherford,94573,38.458864,-122.428831,info@napavalleycannabisassociation.org,,https://napavalleycannabisassociation.org/,https://www.facebook.com/TheNVCA/,https://www.instagram.com/napavalleycannabis/?hl=en,https://twitter.com/CannabisNapa,https://www.linkedin.com/company/napa-valley-cannabis-association/
1ff0389b2e74be3c3966a326f1cd4a03,Mississippi Medical Marijuana Association,,US,MS,,,,,,info@medicalmarijuanams.com,(769) 208-3608,https://www.medicalmarijuanams.com/,https://www.facebook.com/MSMedMarAssociation,https://www.instagram.com/medmarijuanams/,https://twitter.com/medmarijuanams,https://www.linkedin.com/company/medical-marijuana-ms/
2179a21f7858f1251e58b458bd3235c7,Marijuana Industry Group (MIG),PO Box 342,US,CO,Jefferson,Wheat Ridge,80034,,,admin@marijuanaindustrygroup.org,720-382-3009,https://www.marijuanaindustrygroup.org,https://www.facebook.com/Marijuana-Industry-Group-132534240132046,,https://twitter.com/MJIndGroup,https://www.linkedin.com/company/marijuana-industry-group
21edf8a781e92a49699236e73a25fe47,National Association of Cannabis Businesses (NACB),17145 West Bluemound Road Suite J-281 Brookfield WI 53005,US,WI,Waukesha,Brookfield,53005,43.062401,-88.098804,info@nacb.com,(720) 926-6881,https://nacb.com,https://www.facebook.com/TheNACB/,,https://twitter.com/TheNACB,https://www.linkedin.com/company/nationalassociationofcannabisbusinesses/
231d1f27b9848a527a028e72fb7ce833,Florida Cannabis Business Alliance (FCBA),,US,FL,,,,,,,,https://www.medicaljane.com/directory/company/florida-cannabis-business-alliance/,https://www.facebook.com/floridacba,,https://twitter.com/flmedcannabis,
240ab48473d8b6587a1a6c4bc02ba806,Massachusetts Medical Marijuana Dispensers' Association (MMDA),"188 Needham Street, Suite 110R",US,MA,Middlesex,Newton,02464,42.312975,-71.218882,info@baystatemedicalcannabis.com ,617-431-7530,https://www.baystatecannabisgrowers.com/,,,,
24fb3edf3330e98c835155367adda729,Oregon Retailers of Cannabis Association (ORCA),PO Box 42516,US,OR,Multnomah,Portland,97242,45.5,-122.65,"info@oregoncannabisretailers.com, staff@oregoncannabisretailers.com",(541) 632-4442,https://oregoncannabisretailers.org/,https://www.facebook.com/OregonPotStores/,https://www.instagram.com/oregonpotstores/,https://twitter.com/OregonPotStores,https://www.linkedin.com/company/cannabis-industry-alliance-of-oregon/
26b1f43e39e09e1be7787dc98cb980c4,Humboldt County Growers Alliance (HCGA),"427 F Street, Suite 237",US,CA,Humboldt,Eureka,95501,40.798659,-124.151583,info@hcga.co,(707) 599-6670,https://www.hcga.co/,https://www.facebook.com/HumboldtGrowers,https://www.instagram.com/hcga_humboldt/,,
27a7f4d22b2c880e9d8e9e8edb8198aa,Marijuana Industry Trade Association (MITA),410 W. 1st St Suite 104,US,AZ,Maricopa,Tempe,85281,33.42744,-111.934004,info@mita-az.org,520-909-4334,https://mita-az.org,https://www.facebook.com/mitaarizona,https://www.instagram.com/mitaarizona/,,https://www.linkedin.com/company/mita-usa/
296671cb53d2ad73b9313fd85bfd9428,Thai Cannabis Industry Association,"Bangkok 10500, TH",TH,,,,,,,secretariat@thai-can.org,,https://www.thai-can.org/,https://www.facebook.com/ThaiCanIA/,,https://twitter.com/Thai_Cannabis,https://www.linkedin.com/company/thai-cannabis-industry-association/
29916aa89237daf3638eb6afd4398a65,California Cannabis Manufacturers Association,,US,CA,,,,,,,,https://cannabismanufacturers.org,,,,https://www.linkedin.com/company/california-cannabis-manufacturers-association/
2bf13f5582e70338c8d28aafd82f3c95,Women's Cannabis Chamber of Commerce (WCCC),,US,CO,Denver,Denver,80211,39.767444,-105.019736,womenscannabischamber@gmail.com,+1 720-557-5237,https://womenscannabischamberofcommerce.com/,https://www.facebook.com/womenincommerce/,https://www.instagram.com/womenscannabischamber/,https://twitter.com/women420chamber,https://www.linkedin.com/company/women's-cannabis-chamber-of-commerce/
2c8212a6b15798061909659c1b070c53,Spokane Cannabis Association,,US,WA,,,,,,,,,,,,
2d5429ae3fda4c6de609d3d2c4c43170,Arizona Dispensaries Association (ADA),7014 E Camelback Rd,US,AZ,Maricopa,Scottsdale,85251,33.493513,-111.919239,info@azdispensaries.org,602-741-0866,https://azdispensaries.org/,https://www.facebook.com/AZ.dispensaries/,https://www.instagram.com/az_dispensaries/,@ADA_Arizona,https://www.linkedin.com/company/arizonadispensaries/
2e28101f4b3fcffd841b9481714c1ee3,Arizona Cannabis Nurses Association (AZCNA),5505 E. Paseo Cimmeron,US,AZ,Pima,Tucson,85750,32.300129,-110.835996,cannabisnurseheather@gmail.com,(505)716-6016,http://azcna.com,https://www.facebook.com/azcannanurses,,,
30128c77fc63ce1927c29c91cce3f332,Florida Cannabis Industry Association,,US,FL,,,,,,,,,https://www.facebook.com/fmcia.org/,,,
311aa1e5efa6b055e329a88e478b829e,San Luis Obispo County Cannabis Business Association,,US,CA,,San Luis Obispo,,,,,,https://slogrow.org/,,,,
3158d7d552e9856bd2bb137a95f74eeb,Medical Cannabis Association of Hawaii,,US,HI,,,,,,,,,,,,
316ce8f6db52031e9356b057eaf8dd35,Cannabis Retailers Association Vermont,,US,VT,,,,,,,,https://crvt.org/,,https://www.instagram.com/c.r.a.vt/,,
31a13dc93bfde79a390c979dd28db8ff,Louisiana Cannabis Association,,US,LA,,,,,,,,https://www.louisianacannabis.org/,https://www.facebook.com/permalink.php?story_fbid=1889034537937268&id=272033552970716,,,
31adbdf1359fad723f6ea5f8ffc0ebcf,Montana Cannabis Industry Association,"175 Hutton Ranch Rd 103, PMB 120",US,MT,Flathead,Kalispell,59901,48.229649,-114.385053,,,https://www.mtcia.org/,https://www.facebook.com/mtcia,,https://twitter.com/mtciamontana,
32d5abe7c366424564818664187b2b90,Marijuana Business Association (MJBA),"520 Pike Street, Suite 2500",US,WA,King,Seattle,98101,47.610902,-122.336422,info@mjba.net,425.877.3317,https://mjba.net,https://www.facebook.com/MJHeadlineNews,https://www.instagram.com/theMJBA/,https://twitter.com/MJBAnet,https://www.linkedin.com/company/marijuana-business-association/
35c897bbe785534bca58de5bcbd5882b,Nebraska Cannabis Association (NCA),,US,NE,,,,,,connect@nebraskacannabis.org,,https://www.nebraskacannabis.org/,,,,https://www.linkedin.com/company/nebraska-cannabis-association/
3667de75594ad20fd86d1e9f44531af6,Cannabis Industry Association of South Dakota (CIASD),"106 W Capitol Ave, Suite 4, Pierre, SD 57501",US,SD,Hughes,Pierre,57501,44.5276,-100.309037,comms@ciasd.com,,https://ciasd.com/,,,,
37cdb68324172a508935aeb6bd2b75a3,Association of Cannabis Professionals (ACP),750 B Street,US,CA,San Diego,San Diego,92101,32.724103,-117.170912,info@cannabisprofessionals.org,(858) 779-4215,https://cannabisprofessionals.org/,https://www.facebook.com/TheNCIA,https://www.instagram.com/nationalcannabisindustry/,https://twitter.com/NCIAorg,https://www.linkedin.com/company/national-cannabis-industry-association/
3a22139e6161ec740b5336859c613ee2,Missouri Medical Cannabis Trade Association (MoCann Trade),"131 W. High Street, #164",US,MO,Cole,Jefferson City,65102,,,director@mocanntrade.org,(800) 766-0599,https://www.mocanntrade.org/cpages/home,https://www.facebook.com/mocanntrade,https://www.instagram.com/mocanntrade/,https://twitter.com/mocanntrade,https://www.linkedin.com/company/mocanntrade/
3aa003db3b12f026acfcbc690956248a,Georgia Cannabis Trade Association (GA-CTA),"800 International Tower, 229 Peachtree Street NE",US,GA,Fulton,Atlanta,30303,33.753259,-84.389953,zane@ga-cta.org,,https://ga-cta.org/,,,,
3b448398dad0c1f8ec73a4d94ecbf278,Ohio Hemp Association,"35 North Fourth Street, Suite 340",US,OH,Franklin,Columbus,43215,39.966856,-83.01296,info@ohiohempassoc.org,,https://www.ohiohempassoc.org/,https://www.facebook.com/OhioHempAssociation/,,,
3b4e6aa2d0b481411bde2863592ca170,Medical Cannabis Alliance of Illinois,,US,IL,,,,,,,,https://ilcannabismd.com/,,,,
3cc0aa88aed20b405b51f82c5e2ebd12,Oklahoma Women Cannabis Association,,US,OK,,,,,,,,https://www.okwomencann.com/,https://www.facebook.com/events/bubbas-brewhouse/oklahoma-women-cannabis-association/1358627024284689/,https://www.instagram.com/okwecann/,,
3fac4a2dcd813e052b049e262690f5c2,DC Cannabis Business Association (DCCBA),,US,MD,,D.c.,,,,info@dccannabisbusinessassociation.org,,https://www.dccannabisbusinessassociation.org/,https://www.facebook.com/profile.php?id=100068836662805,https://www.instagram.com/dc_cba/,https://twitter.com/DCCBA_,https://www.linkedin.com/company/dccba/
41e9abbf66daac1bc561a8dcda9911e0,Hemp Alliance of Tennessee (HAT),,US,TN,,,,,,info@yourhat.org,,https://www.yourhat.org/,https://www.facebook.com/hempalliancetn,https://www.instagram.com/hempalliancetn/,https://twitter.com/hempalliancetn,https://www.linkedin.com/company/yourhat/
4288c2dbbfe7cb2f30fbb1a6d6923539,Washington CannaBusiness Association (WACA),"PO Box 3329, Kirkland, WA 98083, United States",US,WA,King,Kirkland,98083,,,info@wacannabusiness.org,360-870-7024,https://www.wacannabusiness.org/,https://www.facebook.com/wacannabusiness,https://www.instagram.com/wacannabiz/?hl=en,https://twitter.com/wacannabusiness,
449e150d32805c5a7bee5f60c8761431,Cannabis Beverage Association (CBA),"2511 Connie Drive, Suite 110, Sacramento, CA 95815",US,CA,Sacramento,Sacramento,95815,38.605407,-121.447593,info@cannabev.org,,https://cannabisbeverageassociation.org/,https://www.facebook.com/CannBevAssociation/,https://www.instagram.com/cannbevassociation/,https://twitter.com/CannBev,https://www.linkedin.com/company/cannabisbeverageassociation/
47d564fed3db26adbddc0157b4bffe8f,Asian Americans for Cannabis Education,201 Spear St Ste 1100,US,CA,San Francisco,San Francisco,94105,37.789864,-122.393665,"ophelia@askophelia.com, hello@stockpotimages.com",(415) 480-7956,http://www.asianamericansforcannabis.org/,https://www.facebook.com/AACEit/,,https://twitter.com/AACEit,"1. https://www.linkedin.com/company/asian-americans-for-cannabis-education/
2. https://www.linkedin.com/in/opheliachong/"
494e4a75312cef2c77162ad66a299cb1,DC Medical Cannabis Trade Association (DCMCTA),,US,DC,,,,,,,,,,,,
4b1954e8ae3af65f5e221b36109aa755,Cannabis Council of Canada,"111 Albert Street, P.O Box: 81071",CAN,ON,,Ottawa,K1P 1,,,hello@cannabis-council.ca,(647) 206-1231,https://cannabis-council.ca,,,https://twitter.com/Cannabis_Canada,https://www.linkedin.com/company/cannabis-canada
4d2c81dc037ca9c498059ad6e747cd8c,Resource Innovation Institute,PO Box 5981,US,OR,Multnomah,Portland,97228,,,executivedirector@resourceinnovation.org,503-201-5157,https://resourceinnovation.org/,https://www.facebook.com/ResourceInnovationInstitute/,https://www.instagram.com/ResourceInnovation/,https://twitter.com/RIInstitute,https://www.linkedin.com/company/resource-innovation-institute/
5104a69fb7e715c0f580c4ebb15fd33b,Missouri Cannabis Industry Association (MCIA),"131 W. High Street, #164",US,MO,Cole,Jefferson City,65102,,,director@mocanntrade.org,(800) 766-0599,https://www.mocanntrade.org/cpages/home,https://www.facebook.com/mocanntrade,https://www.instagram.com/mocanntrade/,https://twitter.com/mocanntrade,https://www.linkedin.com/company/mocanntrade/
545c8357ed2030c94039a86d446bc6dd,Alabama Cannabis Industry Association,25778 John M Snook Dr #1061,US,AL,Baldwin,Orange Beach,36561,30.288702,-87.571504,alabamacia@gmail.com,(205) 644-1824,https://www.bamacannabis.org/,https://www.facebook.com/ALABAMACIA,,,https://www.linkedin.com/company/alabama-cannabis-industry-association/
548c0612ce9dbdee0a426080df6de5da,Nevada Cannabis Association,,US,NV,Clark,Las Vegas,89101,36.172547,-115.122234,info@nvdispense.com,702-483-7255,https://www.nvdispense.com/,https://www.facebook.com/nvcannorg,https://www.instagram.com/nvcannorg/,http://www.twitter.com/nvcannorg,https://www.linkedin.com/company/nvcannorg/
56066f710e550592fea23c28a16cd218,Minority Cannabis Business Association,"1300 I Street, NW Suite 400 E",US,DC,District Of Columbia,Washington,20005,38.904674,-77.031578,"info@minoritycannabis.org, amber@minoritycannabis.org",202-681-2889,https://minoritycannabis.org/,https://www.facebook.com/MCBA.org/,https://www.instagram.com/minoritycannabis/,https://twitter.com/MinCannBusAssoc,"1. https://www.linkedin.com/company/minority-cannabis/
2. https://www.linkedin.com/in/kalikocastille/ (MCBA President)"
5ac18c18e112b064f559d8d1e2906a40,Oklahoma Cannabis Industry Association (OCIA),1120 Northwest 51st Street,US,OK,Oklahoma,Oklahoma City,73118,35.517968,-97.528718,kalin@newhealthok.com,"(405) 470-9815, 405-514-9807",https://www.okcannabisassociation.com/,https://www.facebook.com/okcannabizassociation/,https://www.instagram.com/okcannabisindustryassociation/,https://twitter.com/OklahomaCanna,https://www.linkedin.com/company/oklahoma-cannabis-industry-association/about/
5c64437e35499fe86937aa0c17b4210c,America Cannabis Nurses Association,200 East Holly Ave Sewell,US,NJ,Gloucester,Sewell,08080,39.757432,-75.121872,info@cannabisnurses.org,+1 518-704-3635,https://www.cannabisnurses.org/,https://www.facebook.com/WeareACNA,https://www.instagram.com/acnanurses/,https://twitter.com/CannabisNurses,https://www.linkedin.com/company/american-cannabis-nurses-association/
5e320db12f6390467d5d4683f9facc9c,California Cannabis Couriers Association,8175 Alpine Ave Ste C,US,CA,Sacramento,Sacramento,95826,38.543754,-121.377692,cccadelivers@gmail.com,,http://CCCAdelivers.com/,,https://www.instagram.com/cccadelivers/,,
5e740d609b9158cb3844463e59787b62,Hemp Industries Association (HIA),15640 NE 4th Plain Blvd Ste 106 #222,US,WA,Clark,Vancouver,98682,45.673209,-122.481745,info@thehia.org,(707) 874-3648,https://thehia.org,https://www.facebook.com/thehia/,https://www.instagram.com/hempindustriesassociation/,https://twitter.com/thehia,https://www.linkedin.com/company/hemp-industries-association/
5fa9f1eb037c405445b2d0176c8bb077,Ohio Medical Cannabis Industry Association (OMCIA),"140 E. Town Street, Suite 142",US,OH,Franklin,Columbus,43215,39.966856,-83.01296,info@ohiomcia.com,614.404.2224,https://ohiomcia.com/,https://www.facebook.com/profile.php?id=100079751110327,https://www.instagram.com/ohiomcia/,https://twitter.com/OhioMCIA,https://www.linkedin.com/in/ohio-mcia-74207822b/
5fcfe9570811fc9e1ba95ced982c8343,Northern California Cannabis Alliance,"520 CAPITOL MALL, SACRAMENTO, CA 95814",US,US,Sacramento,California,95814,38.580568,-121.49559,,(916) 750-5184,https://www.norcalca.org,,,,https://www.linkedin.com/company/norcalca/?trk=similar-pages
6261e0a768fbb4e0f4f309a43ef2eb65,Organic Cannabis Association,"22144 Clarendon Street, Suite 280,",US,CA,Los Angeles,Woodland Hills,91367,34.177311,-118.615704,jenn@infocastevents.com,(818) 888-4444,https://infocastinc.com/supporting/organic-cannabis-association/,https://www.facebook.com/infocastinc/?ref=settings,,https://twitter.com/infocast_events,https://www.linkedin.com/company/infocast/
651b09a8386a7184c59a29a864487375,Kansas Cannabis Chamber of Commerce,8101 College Boulevard Suite 100,US,KS,Johnson,Overland Park,66210,38.922144,-94.704779,kansascannabischamber@gmail.com,,https://www.kansascannabischamber.com/,https://www.facebook.com/kscannachamber,https://www.instagram.com/kansascannabischamber/,https://twitter.com/kansascannabischamber,
6560d9d69d63e0087422a8c112a1319c,Missouri Cannabis Industry Association (MoCIA),"503 E. Nifong Blvd., Suite H 308",US,MO,Boone,Columbia,65201,38.900944,-92.238425,"info@mocia.org, membership@mocia.org",(573) 443-6866,https://www.mocia.org/cpages/home,https://www.facebook.com/MissouriCIA/,,https://twitter.com/MOCIAOrg/status/1102596523437768704,
665f10aa2c1e0f6b9b0d74adb3203971,Colorado Cannabis Chamber of Commerce,1600 Broadway Suite 1350,US,CO,Denver,Denver,80202,39.751907,-104.997633,info@thecannabischamber.com,(888) 860-3949,https://www.cocannabischamber.com/,,,,
68fc5ef1db4b894574fb1dc3b2b5b35e,Washington Sun & Craft Growers Association,"P.O. Box 57, Riverside, WA 98849",US,WA,Okanogan,Riverside,98849,48.54099,-119.409523,"wasungrown@gmail.com, membership@sunandcraft.org",,https://www.sunandcraft.org/,https://www.facebook.com/CannObserv,https://www.instagram.com/CannObserv/,,
6b786e5dccb98205e8663cf9132de328,Pennsylvania Medical Cannabis Association,,US,PA,,,,,,,,,,,,
6dd1a552d0a9cb64e035ccf90bd5a701,Cannabis Business Alliance,,US,CO,,,,,,,,https://cannabisalliance.org,http://www.facebook.com/CannabisAlliance-107474180756813/,,http://twitter.com/canna_alliance,https://www.linkedin.com/company/cannabis-business-alliance/
6e62dd8e3aee254c09371bb2a9d602d7,California Growers Association,,US,CA,,,,,,,,https://thecannabisindustry.org/pr_tag/california-growers-association-cga/,,https://www.instagram.com/calgrowers/?hl=en,,
6eb54b0d4034124a29e89916b7469c91,Alaska Marijuana Industry Association (AMIA),PO Box 190283,US,AK,North Slope Borough,Anchorage,99519,69.216237,-146.787467,,907-301-6551,https://alaskamia.org,,https://www.instagram.com/alaska.m.i.a/,https://twitter.com/AK_MJ_Industry,
6fd872b5c961868591853a70fbd656cc,Delaware Cannabis Advocacy Network,PO Box 1625,US,DE,Kent,Dover,19903,,,info@delawarecannabis.org,302-404-4208,https://delawarecannabis.org/,https://www.facebook.com/DelawareCANorg/,https://www.instagram.com/delawarecanorg/?hl=en,https://twitter.com/delawareCANorg,https://www.linkedin.com/feed/
713cb280a47c89c63fbeff574252d334,NM Independent Cannabis Association,,US,NM,,,,,,,,,https://www.facebook.com/groups/nmindca/,,,
71b7894185410b0d39e42d891695a91a,Southern California Trade Coalition,"241 S Figueroa St Ste 100, Los Angeles, California, 90012, United States",US,CA,Los Angeles,Los Angeles,90012,34.065975,-118.238642,,844-588-0880,http://southerncaliforniacoalition.com,,,https://twitter.com/socalcoalition?lang=en,
7243544cc94addabd531a5df5cada036,Massachusetts Grower Advocacy Council (MGAC),9 Coram St,US,MA,Bristol,Taunton,02780,41.909112,-71.118346,massgrowers@gmail.com,(774) 322-6045,https://masssense.org/,https://www.facebook.com/MassachusettsGrowerAdvocacyCouncil/,,https://twitter.com/massgrowers/,
72891ef75d66d7e0edc92b24d19996e8,South Carolina Cannabis Association (SCCA),,US,SC,,,,,,matt@pushdigital.com,(803) 546-4177,https://sccannabisassociation.org/,https://www.facebook.com/groups/259021931665053/,,,
734333edde7441c8be266b4835a3ef51,Cannabis Trade Federation,1100 H ST NW STE 410,US,DC,District Of Columbia,Washington,20005,38.904674,-77.031578,,,https://www.cannabistradefederation.com/,,,https://twitter.com/cantradefed,https://www.linkedin.com/company/cannabis-trade-federation/
7570f8d406e5eba427a6bc7979108718,Compassionate Caregivers of Maine,87 Western Ave,US,ME,,Augusta,,,,greenportmeds@gmail.com,+1 207-480-1698,https://ccforme.com,https://www.facebook.com/p/Compassionate-Caregivers-of-Maine-100057206210284/,,,
762b5474b06a89aa9b77cef00a1021c6,Arkansas Cannabis Industry Association,"221 W 2nd Street, Suite 631",US,AR,Pulaski,Little Rock,72201,34.746905,-92.280049,info@arcannabis.org,(844)-420-2242,https://arcannabis.org/,https://www.facebook.com/ArkansasCannaIndustryAssociation,,https://twitter.com/ArkCannabisInd,
762b90ebc7c4af9b59ef85593e7899ae,Commonwealth Dispensary Association,250 Washington Street,US,MA,,Boston,,,,info@cdama.org,,,https://www.facebook.com/CDAMAorg/,,,https://www.linkedin.com/company/commonwealth-dispensary-association-inc/
76b7d2c402b78781712072859f403ac8,Nevada Dispensary Association,521 S 7th St,US,NV,Clark,Las Vegas,89102,36.14543,-115.186825,info@nvdispense.com,+1 702-483-7255,https://www.nvdispense.com/,https://www.facebook.com/nvcannorg,https://www.instagram.com/nvcannorg/,https://twitter.com/nvcannorg,
7a015b6c61c9deb9ae3f1cd991d1ca88,Michigan Cannabis Manufacturers Association (MCMA),40600 Ann Arbor Rd E Suite 201,US,MI,Wayne,Plymouth,48170,42.367689,-83.534306,,,https://www.michigancma.com/,,,https://twitter.com/michigancma,
7a54f378822950a96ba71e3092accbfb,Association of Canadian Cannabis Retailers (ACCRES),,CAN,BC,,,,,,info@accres.ca,+1 604-710-1794,https://accres.ca/,,https://www.instagram.com/rccbc.ca/,https://twitter.com/rccbc_ca,https://www.linkedin.com/company/accres-ca/%20
7aa23adf7810229a325513c1f713da7b,National Cannabis Risk Management Association,100 Allegheny Dr.,US,PA,Allegheny,Warrendale,15086,40.674947,-80.106364,info@ncrma.net,(833) 696-2762,https://ncrma.net/,,,,https://www.linkedin.com/company/thencrma/
7ab2edf9009fc4994b07acbf25b4475f,Delaware Cannabis Policy Coalition,,US,DE,,,,,,,,https://www.delawarecannabispolicy.org/,https://www.facebook.com/Legalindelaware,,https://twitter.com/DECPCoalition,
7ab896e427b9a64d4ed3c8f419076fef,Hemp Industries Association of Florida,225 SOUTH ADAMS ST,US,FL,Leon,Tallahassee,32301,30.427753,-84.258472,info@hiafl.org,(954) 500-4367,"1. https://www.hiafl.org/
2. https://thehia.org/state_hemp_info/florida/",https://www.facebook.com/flhia/,,,https://www.linkedin.com/company/hiafl/?originalSubdomain=nz
7bb6e257993a7a93efb6e15059c2f8bb,Nevada County Cannabis Alliance (The Alliance),"419 Broad Street, Suite C",US,CA,Nevada,Nevada City,95959,39.347811,-120.918728,info@nccannabisalliance.org,(530) 264-7376,https://www.nccannabisalliance.org/,https://www.facebook.com/nevadacountyalliance/,https://www.instagram.com/nevadacountyalliance/,,
7bd1ebb8ed77a732feb8c388ece83c76,Umpqua Cannabis Association,2580 NE Stephens St,US,OR,Douglas,Roseburg,97470,43.250675,-123.242413,umpquacannabis@gmail.com,,www.umpquacannabisassociation.com,https://www.facebook.com/roseburguca/,,,
7c2dae9257729a9dcb826082dc28fea8,MS Cannabis Trade Association (MSCTA),1888 Main Street Ste. C #298,US,MS,,Madison,,,,info@mscta.org,+1 601-454-9969,https://www.mscta.org/,https://www.facebook.com/MSCTAssoc,https://www.instagram.com/msctassoc/,https://twitter.com/MSCTAssoc,https://www.linkedin.com/company/73430301/
7cb5b6b49307607c86162cbabd82e8be,Cannabis Industry Association of Wisconsin,2 E Mifflin St Ste 200,US,WI,Dane,Madison,53703,43.079575,-89.378389,info@ciaw.com,(608) 283-6704,https://ciawi.org/,,,,
7cfc0a1b1d321440867f24060346f80a,The Association of Cannabis Specialists,,US,MA,,Boston,,,,info@cannaspecialists.org,855-864-4404,https://cannaspecialists.org/,https://www.facebook.com/cannaspecialists/,,,https://www.linkedin.com/company/cannaspecialists/
7d0c450b255e05d4b62f9cd4fd53ff3f,New York Cannabis Growers & Processors Association,"165 Main St, Suite 8",US,NY,Cortland,Cortland,13045,42.573849,-76.202145,"contact@cany.org, press@cany.org",(607) 323-1436,https://www.cany.org/,https://www.facebook.com/thinkcany,https://www.instagram.com/thinkcany/,https://twitter.com/thinkcany,
8031a4f578cc2e7b398c25b751e7a7dd,Cannabis Business Association of Illinois,"524 S. Second St., Suite 200",US,IL,Sangamon,Springfield,62701,39.800708,-89.648813,info@cbail.org,,https://www.cbail.org/,https://www.facebook.com/cannabizil/,https://www.instagram.com/cannabiz.il/,https://twitter.com/CannabizIL,https://www.linkedin.com/company/cbail/
80a7905d8ab9fafa6ba205df2fb83cbd,West Virginia Hemp Industries Association,113 Ann St,US,WV,Wood,Parkersburg,26101,39.240324,-81.575872,info@thehia.org,(707) 874-3648,https://thehia.org/state_hemp_info/west-virginia/,https://www.facebook.com/thehia/,https://www.instagram.com/hempindustriesassociation/,https://twitter.com/thehia,https://www.linkedin.com/company/hemp-industries-association/
8505ee80deed3f223a58c5b9124d85fd,Pennsylvania Cannabis Coalition (PCC),P.O. Box 11501,US,PA,Dauphin,Harrisburg,17108,,,meredith@pcanna.org,(717) 220-3508,https://www.pcanna.org/,,,,
85ab23b5a5f711d95cd1f26e48590b22,Maryland Wholesale Medical Cannabis Association,,US,MD,,,,,,info@canmd.org,,https://www.canmd.org/,https://www.facebook.com/MWMCTA,,https://twitter.com/MWMCTA,https://www.linkedin.com/company/canmd/
85f364cad3d0524e361ffe2edb0e7169,America Israel Cannabis Association,2209 Larimer St.,US,CO,Denver,Denver,80205,39.758857,-104.962829,"michael@aicannabis.com,  sara@aicannabis.com, info@aicannabis.com",516-680-1874,https://aicannabis.com/,https://www.facebook.com/AICAssociation/,,,https://www.linkedin.com/company/aicannabis/
860c49c6ced0fcbb110b84a8569f3870,Maryland Medical Dispensary Association (MDMDA),,US,MD,,,,,,,,https://www.mdmda.org/,,,,
8638d988f5326c0557ac97f7c3428f3e,Arizona Cannabis Bar Association,402 E Southern Ave,US,AZ,Maricopa,Phoenix,85016,33.511517,-112.019166,azcannabar@gmail.com,,https://azcannabar.org/,https://www.facebook.com/ThemeFusionAvada,https://www.instagram.com/themefusion/,https://twitter.com/theme_fusion,
86d8242c146357cae573208c389816b3,Cannabis Executive Council (CEC),,US,FL,,,,,,members@cannexcouncil.com,,http://cannexcouncil.com/,https://www.facebook.com/cannexcouncil/,,,
870ab290c81cc215a1fd1343bc5989eb,Iowans for Medical Marijuana,Post Office Box 41381,US,IA,Polk,Des Moines,50311,41.601037,-93.672894,carl-olsen@mchsi.com,515-343-9933,https://www.iowamedicalmarijuana.org/,https://www.facebook.com/iowammj/,,,
8766c45e9266a2dc976de401a07cd3e1,Wisconsin Cannabis Association,"1345 N. Jefferson St, #136, Milwaukee, WI 53202, us",US,WI,Milwaukee,Milwaukee,53202,43.049579,-87.89252,,414-253-1347,https://wiscta.com/,,,,
88b3f1cdbb6fc406dbffc04407702816,Georgia Medical Cannabis Society,2847 Veterans Memorial Hwy SW Unit #1414,US,GA,Cobb,Austell,30168,33.783542,-84.588106,info@georgiamcs.org,(678) 403-8965,https://georgiamcs.org/,https://www.facebook.com/GMCS710/,,,https://www.linkedin.com/company/georgia-medical-cannabis-society-inc/
8a2f1e1b86781406f5ce0badbfd42baa,Monterey County Cannabis Industry Association (MCCIA),"108 Webster St, Monterey, California, 93940, United States",US,CA,Monterey,Monterey,93940,36.57469,-121.840854,info@mccia.com,(831) 402-4275,https://www.mccia.com,https://www.facebook.com/mcciassoc/,,https://twitter.com/mcciassoc?lang=en,
8af1ad434fa8c05b025af65e34bc6cda,National Hemp Association,"1629 K Street, NW, Suite 300",US,DC,District Of Columbia,Washington,20006,38.898609,-77.041461,execdir@nationalhempassociation.org,+1 202-706-3911,https://nationalhempassociation.org/,https://www.facebook.com/HempAssociation,https://www.instagram.com/nationalhempassociation/,https://twitter.com/NatHempAssoc,https://www.linkedin.com/company/nationalhempassociation/
8ba8048406e226598e1bc2d0ac6b4f4e,The National Cannabis Industry Association,"128 C St NW, Washington",US,DC,District Of Columbia,Washington,20001,38.910353,-77.017739,info@thecannabisindustry.org,+1 888-683-5650,https://thecannabisindustry.org/,https://www.facebook.com/TheNCIA,https://www.instagram.com/nationalcannabisindustry/,https://twitter.com/NCIAorg,https://www.linkedin.com/company/national-cannabis-industry-association/
8deaa162bc9c4f4f0306edac259b8a3f,The Minnesota Cannabis Association,703 W Lake St,US,MN,Hennepin,Minneapolis,55408,44.940425,-93.292639,contact@mncannabisassociation.org,,https://www.mncannabisassociation.org/,https://www.facebook.com/MNHempOfficial/,,,https://www.linkedin.com/company/minnesota-hemp-association/
8fc0969a5d68635d6d9c40a1ef052d91,Minorities for Medical Cannabis (M4MM),927 Goldwyn Avenue Suite 124,US,FL,Orange,Orlando,32805,28.52938,-81.403667,info@minorities4medicalmarijuana.org,877-900-0832,https://minorities4medicalmarijuana.org/#,https://www.facebook.com/m4mmunited,https://www.instagram.com/m4mmunited,https://www.twitter.com/m4mmunited,https://www.linkedin.com/company/m4mm/
902d318c3da1798217787ea88216347b,Tennessee Medical Cannabis Trade Association (TMCTA),,US,TN,,,,,,,,https://www.tmcta.com/,,,,
9032a0dcc9790a6e1cd828a2437bba5b,The Michigan Cannabis Industry Association,"101 S. Washington Square #820 , Lansing, MI 48933",US,MI,Ingham,Lansing,48933,42.731996,-84.554683,info@micia.org,(517)-657-7535,https://micia.org/,,,,
9191bbcf4507bcb96bcd48e6b089a2c4,Cannabis Business Association of Virginia,"919 E. Main Street, Suite 1300",US,VA,Richmond City,Richmond,23219,37.539769,-77.435528,info@cannabizva.org,804-823-4015,https://www.cannabizva.org/,https://www.facebook.com/CannaBizVA/,https://www.instagram.com/cannabizva/,https://twitter.com/cannabizva1,https://www.linkedin.com/company/cannabizva/
9431192a44eb66bbc025f9c53f0fd003,American Trade Association for Cannabis and Hemp (ATACH),712 H ST NE UNIT #518,US,DC,District Of Columbia,Washington,20002,38.905026,-76.983607,info@atach.org,,https://atach.org,https://m.facebook.com/people/American-Trade-Association-For-Cannabis-And-Hemp/100079745773380/,,https://twitter.com/atachorg,
94e3bcd1b053fc80d04c5de04bfa014a,Eastern Washington Cannabis Association,,US,WA,,,,,,,,http://ewaca.us/,https://www.facebook.com/ewca.us/,,,
967ef4fedf159dc96b08fd10905df1e5,Central Coast Cannabis Council (CCCC),"Union Station, 2 Washington Square",US,MA,Worcester,Worcester,01604,42.253254,-71.767957,commission@cccmass.com,(833) 869-6820,,,https://www.instagram.com/centralcoastcannabiscouncil/?hl=en,,
968542608d5bc1d65096022e1457da8b,"Alberta Gaming, Liquor and Cannabis (AGLC)",50 Corriveau Avenue,CAN,AB,,Saint Albert,,,,liquorservices@aglc.ca,+1 780-447-8727,https://www.aglc.ca,https://www.facebook.com/AGLC.Alberta/,https://instagram.com/aglc.ca,https://twitter.com/AGLC,https://www.linkedin.com/company/aglc
96d0eff1e434269caf2d893fb32177f6,Society of Cannabis Clinicians,1540 International Pkwy,US,FL,Seminole,Lake Mary,32746,28.771236,-81.35466,info@cannabisclinicians.org,,https://www.cannabisclinicians.org/,https://www.facebook.com/cannaclinicians/,,https://twitter.com/CannaClinicians,https://www.linkedin.com/company/cannaclinicians/
97b3f025b80279e86507f8fd1719cc3f,BIPOCANN,,US,CO,,Denver,,,,info@bipocann.com,720-644-9253,https://bipocann.com,https://www.facebook.com/bipocann,https://www.instagram.com/bipocann,https://www.twitter.com/bipocann,https://www.linkedin.com/in/ernestltoney/
9823dff117857730584694b1f4a091a8,Missouri Cannabis Trade Association,"131 W. High Street, #164",US,MO,Cole,Jefferson City,65102,,,director@mocanntrade.org,(800) 766-0599,https://www.mocanntrade.org/cpages/home,https://www.facebook.com/mocanntrade,https://www.instagram.com/mocanntrade/,https://twitter.com/mocanntrade,https://www.linkedin.com/company/mocanntrade/
988c897cc1c8c7b500d0026975c6ef8f,Cannabis Certification Council,,US,CO,,Denver,,,,,,https://www.cannabiscertificationcouncil.org,,https://www.instagram.com/cannacertcouncil/?hl=en,https://twitter.com/cannacouncil?lang=en,https://www.linkedin.com/company/cannabis-certification-council/
9958bd583fcc0db837e68d5993c49f1c,New Jersey Cannabis Industry Association (NJCIA),,US,NJ,,,,,,njcia@newjerseycia.org,,http://newjerseycia.org/,https://www.facebook.com/NJCIA/,https://www.instagram.com/_njcia/?hl=en,https://twitter.com/_NJCIA,https://www.linkedin.com/company/njcia/
9ca463d41d48649e07ae1e9e11512e58,Southeast Hemp Association,,,,,,,,,,,http://ww12.sehemp.org/,,,,
9cbcebb588135031254ece5654a48609,NORML,"1420 K Street NW   Suite 350   Washington, DC 20005",US,DC,District Of Columbia,Washington,20005,38.904674,-77.031578,norml@norml.org,202-483-5500,https://norml.org,https://facebook.com/norml,https://instagram.com/natlnorml,https://twitter.com/norml,https://www.linkedin.com/company/norml
9ccc42e9b1c662424b44a1f361e43ade,MassCBA,,,,,,,,,,,https://www.masscba.com/,,,,
9e81210ac66b0e707222f133caf29f38,American Association for Cannabis and Hemp,"712 H ST NE, UNIT #518",US,DC,District Of Columbia,Washington,20002,38.905026,-76.983607,info@atach.org,,https://atach.org/,https://m.facebook.com/people/American-Trade-Association-For-Cannabis-And-Hemp/100079745773380/,,,
9f83dea92dfdcf294c3779e1def25b40,Las Vegas Medical Marijuana Association (LVMMA),,US,NV,,,,,,"jlaub@lvmma.org, info@lvmma.org",,https://lvmma.org/,,,,
9f9b1c0f6683863376b5d6b6f4363995,Michigan Medical Marijuana Association,30903 Northwestern Hwy,US,MI,Oakland,Farmington Hills,48334,42.504694,-83.349204,mmmacontact@gmail.com,,https://michiganmedicalmarijuana.com/,https://www.facebook.com/MMMA.org/,https://www.instagram.com/medicalmarijuanaassociation/,,
9fc944a70d5b685e86d9cef92555a1c8,Craft Cannabis Alliance (CCA),"634 NW Flanders Street, #238",US,OR,Multnomah,Portland,97209,45.531124,-122.683951,adam@craftcannabisalliance.org,,http://www.craftcannabisalliance.org/,https://www.facebook.com/ourcraftfuture/,https://www.instagram.com/ourcraftfuture/?hl=en,,https://www.linkedin.com/in/thatadamsmith/
a004fa7d3ffcc77df671200c95d3727c,The Kentucky Hemp Association,P.O. Box 70773,US,KY,Jefferson,Louisville,40270,,,info@kyhempassociation.org,,https://kyhempassociation.org/,https://www.facebook.com/KYHempAssoc/,https://www.instagram.com/kyhempassoc,https://twitter.com/ky_hemp,https://www.linkedin.com/company/kentucky-hemp-association/
a068c8a513905aac78a7ee4355856f54,Cannabis Chamber of Commerce,"5694 Mission Center Rd, STE 602-224",US,CA,San Diego,San Diego,92108,32.774046,-117.142454,"info@thecannabischamber.com, events@thecannabischamber.com",(888) 860-3949,https://www.thecannabischamber.com/,https://www.facebook.com/cannabizchamberofcommerce/,https://www.instagram.com/cannabischamberofcommerce/,https://twitter.com/ChamberCannabis,https://www.linkedin.com/company/thecannabischamber/
a2c985541dd1cbdfa5eac493d22aafc1,South Carolina Compassionate Care Alliance,,US,SC,,,,,,jill@sccompassion.net,864-551-3334,https://www.sccompassion.com/,https://www.facebook.com/OfficialSCCCA,,https://twitter.com/officialsccca,https://www.linkedin.com/company/sc-compassionate-care-alliance/
a455d08b8e117f3183cf0cf6bca9ee28,New Jersey Trade Association (NJCTA),,US,NJ,,,,,,brandon@thomasboyd.com,856.840.4089,https://www.njcannabistrade.org/,,,,
a4a01f11279d7944ad7ec5f99a302b52,Iowa Hemp Association,11275 NW Aurora Ave.,US,IA,Polk,Urbandale,50322,41.634164,-93.73436,info@iowahia.org,(563) 506-8714,https://iowahia.org/,,,https://twitter.com/IowaHemp,
a4c61cf4338029a50a88ff51e87e8efb,The Cannabis Alliance,"12345 Lake City Way NE, #170",US,WA,King,Seattle,98125,47.716513,-122.295829,info@thecannabisalliance.us,253.235.9054,https://thecannabisalliance.us/,https://www.facebook.com/TheCannaAlliance/,https://www.instagram.com/thecannabisalliance/,https://twitter.com/CannAlliance,
a69d94e11fefa52e4b728b9cc20fcebd,Oregon Cannabis Association,,US,OR,,,,,,"info@orcannabisassociation.org
","(503)893-5081, 503-539-4394",https://orcannabisassociation.org/,https://www.facebook.com/orcannassociation/,https://www.instagram.com/oregoncannabisassociation/?hl=en,,
a717f7ad0f523793b10cd5bc96b23a39,Cannabis Trades Association,,,,,,,,,,+44 7798 871171,https://www.cannabistrades.org/,https://www.facebook.com/HempTradesUK,https://www.instagram.com/cannabistradesuk/,https://twitter.com/cannabis_trades,https://www.linkedin.com/company/cannabis-trades-association-uk/
a7acaeb5cfe8ba544e89ad711d37e577,NH Cannabis Association,184 Linden Street.,US,NH,Hillsborough,Manchester,03104,43.009552,-71.439782, info@newenglandwebstrategies.com,(617) 391-8648,https://nhcann.org/,https://www.facebook.com/NHCannAssociation/,https://www.instagram.com/nhcann/,https://twitter.com/NhcannO,https://www.linkedin.com/company/nhcannabisassociation/
aa23ca4d4a9aaa217ed8ae9a55e8b294,Florida for Care,801 N Magnolia Ave,US,FL,Orange,Orlando,32803,28.555829,-81.346291,info@floridaforcare.org,407-930-3525,floridaforcare.org,https://www.facebook.com/FloridaForCare/,,,
aa6aad8ec6f7d6e02ad986c460e5393c,National Cannabis Association of Ohio,"128 C Street Northwest,",US,DC,,Washington,,,,info@thecannabisindustry.org,+1 888-683-5650,https://thecannabisindustry.org/category/ohio/,https://www.facebook.com/TheNCIA,https://www.instagram.com/nationalcannabisindustry/,https://twitter.com/NCIAorg,https://www.linkedin.com/company/national-cannabis-industry-association/
aaae84610e1f30bd8b3a2d6296704512,Cascade Cannabis Assocaiton,,US,OR,,,,,,hello@cascade-cannabis.org,,,https://www.facebook.com/cascadecanna/,https://www.instagram.com/cascade_cannabis_association/?hl=en,,
ab895af3b4ed354f4ab696f76ab25c2d,Oregon Cannabis Business Council,1321 Upland Dr. PMB 20945,US,TX,Harris,Houston,77043,29.81093,-95.584639,info@natureandbloom.com,+20 3 4882378,https://www.natureandbloom.com/oregoncbc/,https://www.facebook.com/naturebloomcbd/,https://www.instagram.com/naturebloomcbd/,,
ac1060bf71f065978355f58675a4cded,The Canadian Medical Cannabis Industry Association,,CAN,,,,,,,,,,,,,
af5b0a01934354f8e06e3071d207dc08,Virginia Medical Cannabis Coalition (VMCC),"P.O. Box 12973, Newport News, VA 23612",US,VA,Newport News City,Newport News,23612,,,info@vmccequity.org,,https://vmccequity.org/,,,,
afdc4cd097b9c65d9e548b8a85594a13,Craft Cannabis Alliance,,,,,,,,,adam@craftcannabisalliance.org,,http://www.craftcannabisalliance.org/,https://www.facebook.com/ourcraftfuture/,https://www.instagram.com/ourcraftfuture/?hl=en,,
b1502d8afb89487923bc9482ac9da67f,Ohio Cannabis Association,,US,OH,Franklin,Columbus,43215,39.966856,-83.01296,,(614) 591-4210,https://ohiocannabisassociation.com/,,,,
b575df90db5f154410242dd927fb8e2b,New Jersey CannaBuisness Association,,US,NJ,,,,,,njcia@newjerseycia.org,,http://newjerseycia.org/,https://www.facebook.com/NJCIA/,https://www.instagram.com/_njcia/?hl=en,https://twitter.com/_NJCIA,https://www.linkedin.com/company/njcia/
b5d167b939e992b80126397ff2123398,The Georgia Cannabis Industry Association,,US,GA,,,,,,,,,,,,
b7424fe1e8750c5a120fe8eb5dc292f9,Southern Colorado Cannabis Council,,US,CO,El Paso,Colorado Springs,80903,38.831526,-104.815062,info@sococc.org,502-396-5663,https://www.sococc.org,https://www.sococc.org/#,,,
b76ef03429e4cef7f312ddf5fa03ce27,Cannabis Distribution Association,"1127-11th Street, Suite 609",US,CA,Sacramento,Sacramento,95814,38.580568,-121.49559,membership@distributeca.org,916-304-4714,https://www.distributeca.org/,https://www.facebook.com/distributeca/,https://www.instagram.com/distributeca/,,https://www.linkedin.com/company/distributeca
b835d3c3d873a1de1295a6940f9536a7,Santa Ana Cannabis Association,,US,CA,,,,,,info@sacannabis.org,,https://sacannabis.org,https://www.facebook.com/sacaorg/,,,
b8defc99581ceebad2881ffa67d63817,New Brunswick Cannabis Office (NBCO),,CAN,NB,,Fredericton,,,,info@cannabis-coordinator.com,,https://cannabis-coordinator.com/,https://www.facebook.com/profile.php?id=100028107655654,,https://twitter.com/nbcanofficer?lang=en,
bb5f4477884ff80acf102469c5a4346d,Grupo Promotor de la Industria de Cannabis,"Horacio #632, Polanco IV Seccion,Mexico City, Mexico 11550",MX,,,,,,,contacto@gpic.mx,+52 55 7601 0424,https://gpic.mx/,https://www.facebook.com/gpicmexico,,https://twitter.com/gpicmx,https://ca.linkedin.com/company/gpicmx
bb91bd8c24b4559fb878b4b7794253ad,Vermont Growers Association,"PO BOX 5324, Burlington, Vermont",US,VT,,Burlington,,,,,,https://www.vermontgrowers.org/,,https://www.instagram.com/vermontgrowers/,https://twitter.com/vermontgrowers,
bcae75029c384b73cdb77659545f2c39,Marijuana Policy Project (MPP),P.O. Box 21824,US,DC,District Of Columbia,Washington,20009,38.919144,-77.037381,media@mpp.org,202-462-5747,https://www.mpp.org,https://www.facebook.com/MarijuanaPolicyProject,https://instagram.com/marijuanapolicyproject,https://twitter.com/marijuanapolicy,
bcb043eb06bff07516441c5baa6af902,The Association of Food and Drug Officials,"155 Market Street, 3rd floor",US,PA,York,York,17401,39.959462,-76.733457,afdo@afdo.org,+1 (717) 757   2888,https://www.afdo.org/,https://www.facebook.com/profile.php?id=100063700746208,https://www.instagram.com/afdo1896/,https://twitter.com/afdonews,https://www.linkedin.com/company/association-of-food-and-drug-officials/
bf325acfc841703e443d80d40da11b2f,Project CBD,,,,,,,,,info@projectcbd.org,,https://projectcbd.org/,https://www.facebook.com/ProjectCBD/,https://www.instagram.com/project_cbd/,,https://www.linkedin.com/company/projectcbd/
bfff9a57f9d1f95bc64b31ca58a03d28,California Distribution Association (CDA),,US,CA,,,,,,,,https://www.distributeca.org,,https://www.instagram.com/distributeca/,,
c4212ad7bf5490fcbf7bc050aa0ae14b,Marijuana Industry Trade Association Arizona (MITA-AZ),410 W. 1st St Suite 104,US,AZ,Maricopa,Tempe,85281,33.42744,-111.934004,info@mita-az.org,(480) 616-1461,https://mita-az.org/,,,,
c4f222b13bc02550532e11639290fa5c,Wisconsin Cannabis Trade Association (WISCTA),"1345 N. Jefferson St, #136, Milwaukee, WI 53202, us",US,WI,Milwaukee,Milwaukee,53202,43.049579,-87.89252,,4142531347,https://wiscta.com/,,,,
c5be9f3ce72379eb0ca6234e0cdd0425,U.S. Cannabis Council (USCC),"1100 New Jersey Ave SE, Suite 2000 #249, Washington DC 20003",US,DC,District Of Columbia,Washington,20003,38.881904,-76.990935,info@uscc.org,,https://www.uscc.org,https://www.facebook.com/USCannCouncil/,,https://twitter.com/USCannabisCncl,https://www.linkedin.com/company/us-cannabis-council/?viewAsMember=true
c6088f57954bacc5391e0ffac6cad297,International Cannabis Bar Association,,,,,,,,,,,https://incba.org/,https://www.facebook.com/theINCBA,https://www.instagram.com/the.incba/,https://twitter.com/theINCBA,https://www.linkedin.com/company/international-cannabis-bar-association
c66314986328c9e8a9f5b6560a75e7a8,Texas Hemp Growers,P.O. Box 53031,US,TX,Lubbock,Lubbock,79453,,,info@txhempgrowersassociation.com,(806) 240-0210,https://txhempgrowersassociation.com/,https://www.facebook.com/growtexashemp/,https://www.instagram.com/texashempgrowers/,https://twitter.com/TXHempFarmers,
c6fa03a60c52ef6980bc8776f7a23d17,San Luis Obispo County Cannabis Growers Alliance,,US,CA,,San Luis Obispo,,,,,,https://slogrow.org,,,,
c73b522b884b26e52ebf5dc3a842c464,Medical Marijuana Caregivers of Maine (MMCM),,US,ME,,,,,,,,https://mmcm-online.org/,,,,
c7414518144dad7d19f2b06dbecd62c3,Americans for Safe Access (ASA),1624 U St NW Ste 200,US,DC,District Of Columbia,Washington,20009,38.919144,-77.037381,info@safeaccessnow.org,202.857.4272,https://www.safeaccessnow.org,https://www.facebook.com/safeaccessnow,https://www.instagram.com/americansforsafeaccess/,https://twitter.com/safeaccess,https://www.linkedin.com/company/americans-for-safe-access/
c87bbc2f4fed007540d7cfd73744355b,United Cannabis Business Association (UCBA),"13351 Riverside Dr 401, Sherman Oaks, California, 91423",US,CA,Los Angeles,Sherman Oaks,91423,34.148617,-118.433298,info@ucba.com,(213) 255-9210,https://ucba.com/,https://www.facebook.com/UCBANetwork/,https://www.instagram.com/ucbanetwork/,https://twitter.com/UCBA_Network,https://www.linkedin.com/company/ucba/
c96392e8426e9806456d785e7a526033,Vashon Island Marijuana Entrepreneurs Alliance (VIMEA),"PO Box 2327, Vashon Island",US,WA,King,Vashon,98070,47.407196,-122.473322,,,http://www.vimea.org/,,,,
cb9cc5facd0d4199fa001cadb60433ff,National Cannabis Industry Association of Ohio,"128 C Street Northwest,",US,DC,,Washington,,,,info@thecannabisindustry.org,+1 888-683-5650,https://thecannabisindustry.org/category/ohio/,https://www.facebook.com/TheNCIA,https://www.instagram.com/nationalcannabisindustry/,https://twitter.com/NCIAorg,https://www.linkedin.com/company/national-cannabis-industry-association/
ccda89673a98dd672debedc6dad10596,South Carolina Hemp Association (SCHA),,US,SC,,,,,,,,http://schempassociation.org/,,,,
cd6883ff16a1da28670a39327d6c4573,Oklahoma Medical Marijuana Authority,PO Box 262266,US,OK,Oklahoma,Oklahoma City,73126,,,ommacommunications@omma.ok.gov,+1 405-522-6662,https://oklahoma.gov/omma.html,https://www.facebook.com/OMMAOK/,https://www.instagram.com/ommaok/,https://twitter.com/OMMAOK,https://www.linkedin.com/company/ommaok/
ceb0c10694e0c252f36513076431e236,Maryland Medical Cannabis Commission,"849 International Drive, 4th Floor",US,MD,Anne Arundel,Linthicum,21090,39.208481,-76.672517,,410-487-8100,https://mmcc.maryland.gov/Pages/home.aspx,https://www.facebook.com/MCAdminOfficial/,https://www.instagram.com/mcadminofficial/,https://twitter.com/MDCannabis/,https://www.linkedin.com/company/maryland-medical-cannabis-commission/?viewAsMember=true
d0569261aa5cfc9c83a5b9fb3e1bc692,Central Coast Cannabis Council (CCCC),3940 Broad St # 7,US,CA,San Luis Obispo,San Luis Obispo,93401,35.23575,-120.615973,communications@ccccouncil.com,(805) 244-5349,https://ccccouncil.com/,,https://www.instagram.com/centralcoastcannabiscouncil/?hl=en,,
d11fa42c3e355f4a04fd92fe0b8b5320,Oregon Cannabis Retailers,PO Box 42516,US,OR,Multnomah,Portland,97242,45.5,-122.65,staff@oregoncannabisretailers.com,541.632.4442,https://oregoncannabisretailers.com/,https://www.facebook.com/OregonPotStores/,https://www.instagram.com/oregonpotstores/,https://twitter.com/OregonPotStores,https://www.linkedin.com/company/oregon-retailers-of-cannabis-association/
d409ede06fcf574e5d5e4dab09eb3d5c,Arizona Medical Cannabis Association,8376 N El Mirage Rd Bldg 2 Suite 2,US,AZ,Maricopa,El Mirage,85335,33.592283,-112.327691,info@theazcs.com,+(888) 249-2927,https://theazcs.com/,https://www.facebook.com/theazcs/,https://www.instagram.com/the.azcs/,https://twitter.com/the_azcs,
d41a5a552cba34225dfb705d5f59a317,Hemp Association of Louisiana,2742 Oscar Rivette Rd,US,LA,St. Landry Parish,Arnaudville,70512,30.415729,-91.920497,info@hempassociationla.com,337-418-9290,https://www.hempassociationla.com/,https://www.facebook.com/hempassociationla/,,,
d531db93c2a336bd101cf8f54a1dd39a,Kentucky Hemp Association (KYHA),P.O. Box 70773,US,KY,Jefferson,Louisville,40270,,,info@kyhempassociation.org,,https://kyhempassociation.org/,https://www.facebook.com/KYHempAssoc/,https://www.instagram.com/kyhempassoc,https://twitter.com/ky_hemp,
d53ab2d1f4f57224a88ac6830b44eca0,Mendocino Cannabis Alliance,,US,CA,,,,,,info@mendocannabis.com,,https://mendocannabis.com/,https://www.facebook.com/TheMCAlliance,https://www.instagram.com/mendo.cannabis/,,
d69f8306856ae9cdd1d9ff9da2e3ef87,Cannabis Industry Council,,UK,,,,,,,mikemg@cicouncil.org.uk ,,https://www.cicouncil.org.uk/,,https://www.instagram.com/ukcancouncil/,https://twitter.com/ukcancouncil?lang=en,https://www.linkedin.com/company/cannabis-industry-council/
d864a71ae23214fe8dc78e0e0e3e126d,Utah Cannabis Association (UCA),"189 N Highway 89, #C129",US,UT,Davis,North Salt Lake,84054,40.838866,-111.917284,info@cannabisutah.org,(801) 400-8160,http://cannabisutah.org/,,,,
dac4ca900883c0bb119283f1c0aa289b,New Brunswick Craft Cannabis Association,,CAN,NB,,,,,,,,,,,https://twitter.com/nbcca1?lang=en,
db99f0290959e892a07c346a1dc1321e,Asociacion Peruana de Industrias de Cannabis,,PE,,,Lima,,,,contactoasopecanna@asopecanna.org,,https://www.asopecanna.org/,,,,https://www.linkedin.com/company/asopecanna/
dd47e338ddf8d8fd292d4263ecdd3160,Central Washington Growers Association,2600 Chester Kimm Rd,US,WA,,Wenatchee, 9880,,,,,,https://www.facebook.com/cwgrowers/,,,
dd503c38964389b0066d4fd04cd0fa0e,Philadelphia CannaBusiness Association (PCBA),,US,PA,Philadelphia,Philadelphia,19107,39.951735,-75.158654,phillycannabusiness@gmail.com,,https://www.phillycannabusiness.com/,https://www.facebook.com/people/Philadelphia-CannaBusiness-Association/100080413973468,https://www.instagram.com/phillycannabiz/,,
dd8ab918a3da6216ef91c27af9d5a82b,Maryland Wholesale Cannabis Trade Association,,US,MD,,,,,,info@canmd.org,,https://www.canmd.org/,https://www.facebook.com/MWMCTA,,https://twitter.com/MWMCTA,https://www.linkedin.com/company/canmd/
de20f4283312720ee7d02610b4db1a0a,Connecticut Pharmacists Association / Academy of Medical Marijuana Dispensaries,35 Cold Spring Rd Ste 121,US,CT,Hartford,Rocky Hill,06067,41.656624,-72.661779,members@ctpharmacists.org,+1 860-563-4619,https://ctpharmacists.org/academy-of-medical-marijuana-dispensaries/,https://www.facebook.com/connecticutpharmacists,,https://twitter.com/ctpharmacists,https://www.linkedin.com/company/connecticut-pharmacists-association/
dee6c1d10ae8a69bb309f10b0ab2fe24,US Cannabis Council,"1100 New Jersey Ave SE, Suite 2000 #249, Washington DC 20003",US,DC,District Of Columbia,Washington,20003,38.881904,-76.990935,info@uscc.org,,https://www.uscc.org/,https://www.facebook.com/USCannCouncil/,,https://twitter.com/USCannabisCncl,https://www.linkedin.com/company/us-cannabis-council/?viewAsMember=true
e0769e6f5d102df401fbfbf88378a73d,Wyoming Hemp Association,,US,WY,,,,,,,,https://www.wyhemp.org/,https://www.facebook.com/wyominghemp,,,
e0e04e0ec9c1dcab79c856ea140a986c,Tennesee Medical Cannabis Trade Assocation,6610 Fleetwood Dr,US,TN,Davidson,Nashville,37209,36.1854,-86.94857,,,https://www.tmcta.com/,,,,
e0fd33642faa9583146d408dc19304b9,Cannabis Cultural Association,1841 Broadway,US,NY,New York,New York,10023,40.775921,-73.982607,contact@cannacultural.org,914-299-9829,https://clusty.com/cannabis-cultural,https://www.facebook.com/CannaCultural/,https://www.instagram.com/cannacultural/,https://twitter.com/CannaCULTURAL,https://www.linkedin.com/company/cannacultural/
e39ef2ab3f079969f8a80b5e75c6baeb,Drug Policy Alliance,,US,,,,,,,,,https://drugpolicy.org/,,,,
e4d25119c7b7b004ed7b689064a3bea3,Association of Cannabis Specialists,,US,,,,,,,info@cannaspecialists.org,,https://www.cannaspecialists.org/,,,,
e51a9915aa9350fe5341ad6354a6d27c,Maine Growers Alliance,,US,ME,,,,,,,,https://mainegrowersalliance.com/,,https://www.instagram.com/mainegrowersalliance/,,
e65102ba1a1bf08229c1b8f95853f85d,Native American Cannabis Alliance,,US,,,,,,,,,,,,,
e72410edf00ec22d99feee03804fef54,Cannabis Business Association of  Manitoba (CBAM),,CAN,MB,,,,,,cannabisbusinessassociationmb@gmail.com,+1 204-797-0201,,https://www.facebook.com/CanBizAssMB/,,,
e825a6bcffdcefaeec56b37ae031fd89,Yolo County Cannabis Coalition (The YCCC),PO Box 4154,US,CA,Yolo,Davis,95617,38.55,-121.74,info@yolocannabiscoalition.org,,http://www.yolocannabiscoalition.org/,,,,
e85616187f972a81f99898f96c18af72,Medical Marijuana Business Association of Florida (MMBAFL),"106 E. College, Avenue, Suite 1110",US,FL,Leon,Tallahassee,32301,30.427753,-84.258472,jeffrey@mmbafl.com,850-224-1925,http://mmbafl.com/,,,https://twitter.com/MMBAFL_Assoc,
e9498072a30b15e596b2c89caa0cdaa9,Women Grow,7700 E Arapahoe Rd Ste 220,US,CO,Arapahoe,Centennial,80112,39.576926,-104.857826,support@womengrow.com,,https://womengrow.com/,https://www.facebook.com/WomenGrow/,https://www.instagram.com/womengrow,https://twitter.com/womengrow,https://www.linkedin.com/company/women-grow/
ea9a81c889681ae588b5b1789182e252,Kansas Cannabis Industry Association,PO Box 2326,US,KS,Shawnee,Topeka,66603,39.057972,-95.676181,kciasocial@gmail.com,785-383-8825,https://www.kansascannabisindustry.com/,https://www.facebook.com/TheKCIA,https://www.instagram.com/kansascannabisindustry/,https://twitter.com/TheKCIA,https://www.linkedin.com/company/kansas-cannabis-industry-association/
eac6b191a7f24440027142d6dcd56a24,New York Medical Cannabis Industry Association (NYMCIA),,US,NY,,,,,,,,https://www.protectnymedmar.com/,https://www.facebook.com/nymedmar,,https://twitter.com/nymedmar,
ed2972f4bf66d745a9c1660c651df4d0,New Mexico Cannabis Chamber of Commerce,933 San Mateo NE #500-351,US,NM,Bernalillo,Albuquerque,87108,35.072479,-106.578362,ben@nmcannabischamber.org,(505) 886-2256,https://nmcannabischamber.org/,https://www.facebook.com/NMCannaChamber,https://www.instagram.com/nmcannachamber/,https://twitter.com/nmcannachamber,https://www.linkedin.com/company/nmccc/about/
f200c73e13cd475c234d6d58bb9770c2,Sonoma County Growers Alliance (SCGA),321 South Main Street #524,US,CA,Sonoma,Sebastopol,95472,38.398815,-122.861923,"susan.gorin@sonoma-county.org, info@scgalliance.com, ",(707) 861-0050/ (707) 565-2371,https://www.scgalliance.com/,https://www.facebook.com/SCGAlliance/,https://www.instagram.com/scgalliance/,https://twitter.com/scgalliance,https://www.linkedin.com/company/sonoma-county-growers-alliance/
f5f5735ec253c6e0cd4bf18bf6fd9279,Idaho Cannabis Industry Association (ICIA),,US,ID,,,,,,,,,https://www.facebook.com/groups/106723242734420/,,,
f7820b3ab151786ff7c1133562379756,Michigan Cannabis Industry Association (MiCIA),101 S. Washington Square #820,US,MI,Ingham,Lansing,48933,42.731996,-84.554683,"info@micia.org, robin@micannabisindustryassociation.org",(517)-657-7535,https://micia.org/,https://www.facebook.com/micannaindustry/,https://www.instagram.com/micannaindustry/,https://twitter.com/MICannaIndustry,https://www.linkedin.com/company/michigan-cannabis-industry-association/
f8407e5c84e2941300034437da579e8f,California Cannabis Industry Association (CCIA),1225 8th St,US,CA,Sacramento,Sacramento,95814,38.580568,-121.49559,info@cacannabisindustry.org,(866) 774-6932,https://www.cacannabisindustry.org/,https://www.facebook.com/CaliforniaCannaIndustry,https://www.instagram.com/californiacannabisindustry/,https://twitter.com/cacannaindustry?lang=en,https://www.linkedin.com/company/california-cannabis-industry-association/
fa9d83d4273ed6c82a15eaa9067c6304,CalGrowers,"400 Peebles, Suite 100 Morgan Hill, CA 95037",US,CA,Santa Clara,Morgan Hill,95037,37.174063,-121.598747,contact@calcolorgrowers.com,408-778-2355,https://www.calcolorgrowers.com/,,https://www.instagram.com/calgrowers/?hl=en,https://twitter.com/i/flow/login?redirect_after_login=%2Fcalgrowers,
fc2ca4e94a34829509826d0135c06ce1,Virginia Hemp Coalition,"1155 Seminole Trail, #6490, Charlottesville, Virginia 22906",US,VA,Charlottesville City,Charlottesville,22906,,,info@vahemp.org,,https://www.vahemp.org/,https://www.facebook.com/vahemp.org/,,https://twitter.com/virginiahemp?lang=en,
fcc3d4ed6034b1c88a556b6038026d8a,Hawaii Cannabis Industry Association (HICIA),"220 SOUTH KING STREET, SUITE 1600",US,HI,Honolulu,Honolulu,96813,21.316548,-157.845053,info@808hicia.org,,https://www.hicia.org/,https://www.facebook.com/theHICIA/,,,https://www.linkedin.com/company/hawaii-cannabis-industry-association/
fd32b04a369e7c1ed1a72b5b6280aa07,Hawaii Dispensary Alliance,,US,HI,,,,,,,,https://hawaiidispensary.org/about/,,,https://twitter.com/Alliance_HI,
fd72b6fa4c2f581e585842551cce32a7,Virginia Cannabis Industry Association (VCIA),2920 W Broad St,US,VA,Henrico,Richmond,23230,37.586639,-77.489122,contact@virginiacannabisindustry.org,,https://virginiacannabisindustry.com/,https://www.facebook.com/TheVCIA/,,,
fdad9cb58a7e13cdcd96791b9745b990,DC Cannabis Trade Association (DCCTA),1100 New Jersey Ave SE,US,DC,District Of Columbia,Washington,20003,38.881904,-76.990935,,,https://t.co/74g6Udsy3J,https://www.facebook.com/DCLegalCan/?locale=hi_IN,,https://twitter.com/dclegalcan?lang=en,
ffee96e318580add9733238196dfb8d0,North Carolina Industrial Hemp Association (NCIHA),1157 S Cox Street,US,NC,Randolph,Asheboro,27203,35.728464,-79.786527,https://www.ncindhemp.org/,(888) 530-6731,https://www.ncindhemp.org/,https://www.facebook.com/NorthCarolinaIndustrialHempAssociation/,,https://twitter.com/NCHempIndustry,
